CUTE-1 (CO-55)          
1 27844U 03031E   19199.83489077  .00000019  00000-0  28238-4 0  9994
2 27844  98.6833 207.5971 0008837 309.0512  50.9878 14.22185627832571
CUBESAT XI-IV (CO-57)   
1 27848U 03031J   19199.97636333  .00000017  00000-0  27571-4 0  9999
2 27848  98.6910 208.2431 0008926 321.1607  38.8928 14.21780052832448
CUBESAT XI-V            
1 28895U 05043F   19199.86119861  .00000064  00000-0  21113-4 0  9995
2 28895  97.9633 341.5647 0015456 254.9904 104.9588 14.63675594731663
CUTE-1.7+APD II (CO-65) 
1 32785U 08021C   19199.80529811  .00000113  00000-0  17757-4 0  9995
2 32785  97.5497 198.1000 0013619 156.6563 203.5276 14.88321414608093
AAUSAT-II               
1 32788U 08021F   19200.04181739  .00000392  00000-0  41024-4 0  9993
2 32788  97.4957 214.4299 0013458  97.4911 262.7839 14.94747467609458
DELFI-C3 (DO-64)        
1 32789U 08021G   19200.09560955  .00000882  00000-0  62850-4 0  9994
2 32789  97.4621 248.8407 0012824  28.9439 331.2497 15.07003204611543
SEEDS II (CO-66)        
1 32791U 08021J   19199.84020511  .00000216  00000-0  27256-4 0  9998
2 32791  97.5276 204.1375 0014512 132.8347 227.4094 14.90836265608526
SWISSCUBE               
1 35932U 09051B   19199.89709280  .00000078  00000-0  28657-4 0  9996
2 35932  98.5906   6.7576 0008839  76.1273 284.0907 14.56293109521138
BEESAT-1                
1 35933U 09051C   19200.03563099  .00000053  00000-0  22972-4 0  9999
2 35933  98.5931   8.6723 0007083  87.2922 272.9085 14.56381210521309
ITUPSAT1                
1 35935U 09051E   19199.90458238  .00000047  00000-0  21983-4 0  9996
2 35935  98.6042   8.7732 0009385  84.9066 275.3201 14.55540133521000
TISAT 1                 
1 36799U 10035E   19199.87955730  .00000062  00000-0  12367-4 0  9997
2 36799  98.1594 353.0385 0011967 353.8341   6.2727 14.91119057489069
M-CUBED & EXP-1 PRIME   
1 37855U 11061F   19200.37133907  .00000947  00000-0  55285-4 0  9991
2 37855 101.7116 111.7158 0173503 345.9491  13.6926 15.05484535421391
STRAND-1                
1 39090U 13009E   19200.18501224  .00000017  00000-0  21228-4 0  9996
2 39090  98.4860  45.6280 0008790 190.9372 169.1623 14.35090476334768
SOMP                    
1 39134U 13015E   19199.62168407  .00000454  00000-0  30155-4 0  9994
2 39134  64.8635 283.4678 0032366 298.5861  61.2011 15.20202001345142
BEESAT-3                
1 39135U 13015F   19200.45366752  .00000400  00000-0  29679-4 0  9992
2 39135  64.8701 299.5026 0025404 315.6566  44.2525 15.17507820344918
BEESAT-2                
1 39136U 13015G   19200.50226535  .00000287  00000-0  24459-4 0  9997
2 39136  64.8711 303.2598 0020738 299.2179  60.6872 15.16935972344840
NEE-01 PEGASO           
1 39151U 13018B   19200.23697045  .00000077  00000-0  17108-4 0  9995
2 39151  97.9732 296.4406 0018518 102.4183 257.9102 14.80054435336249
ESTCUBE 1               
1 39161U 13021C   19200.17162490  .00000054  00000-0  16325-4 0  9999
2 39161  97.9868 284.5116 0008620 224.1339 135.9198 14.72210603332859
POPACS 1                
1 39268U 13055D   19199.67145712  .00004044  00000-0  11015-3 0  9997
2 39268  81.0035 289.4720 0626856 134.9859 230.3942 14.37130168301349
POPACS 2                
1 39269U 13055E   19200.01620704  .00001915  00000-0  55229-4 0  9998
2 39269  81.0170 319.5027 0683664 212.6631 143.0491 14.23953301299585
POPACS 3                
1 39270U 13055F   19200.34195366  .00000349  00000-0  10712-4 0  9995
2 39270  81.0181 336.3520 0713106 261.6074  90.3713 14.15867044298538
ZACUBE-1 (TSHEPISOSAT)  
1 39417U 13066B   19200.03842814  .00000106  00000-0  19855-4 0  9991
2 39417  97.5616 211.8343 0057475 295.2261  64.3001 14.81125472305532
WNISAT-1                
1 39423U 13066H   19200.41455130 -.00000032  00000-0  36861-5 0  9997
2 39423  97.7748 140.0959 0174471 217.1665 141.7346 14.53047663299910
TRITON-1                
1 39427U 13066M   19199.92688075  .00000154  00000-0  32270-4 0  9993
2 39427  97.6778 175.4386 0115321  68.9321 292.4171 14.67851898302588
GOMX-1                  
1 39430U 13066Q   19200.54758827  .00000088  00000-0  24660-4 0  9991
2 39430  97.7494 155.0719 0151423 156.4934 204.3269 14.59261349301102
CUBEBUG-2 (LO-74)       
1 39440U 13066AA  19199.92140273  .00000114  00000-0  22953-4 0  9994
2 39440  97.6025 196.5738 0079950 347.9411  11.9883 14.75863602303232
NEE-02 KRYSAOR          
1 39441U 13066AB  19199.91625280  .00000065  00000-0  16428-4 0  9995
2 39441  97.6066 194.3295 0081653 355.0172   5.0216 14.74913192303096
FUNCUBE-1 (AO-73)       
1 39444U 13066AE  19200.02223438  .00000154  00000-0  25473-4 0  9991
2 39444  97.5596 213.7942 0056518 288.8680  70.6411 14.81946055304425
UWE-3                   
1 39446U 13066AG  19200.48285899  .00000110  00000-0  21408-4 0  9998
2 39446  97.5810 204.1591 0069003 320.6579  38.9631 14.78398185303819
BRITE-CA1 (TORONTO)     
1 40020U 14033L   19200.51666420  .00000001  00000-0  84376-5 0  9993
2 40020  97.7452  42.6394 0088739  58.7454 302.2406 14.66579263271824
DUCHIFAT-1              
1 40021U 14033M   19199.75106681  .00000254  00000-0  31830-4 0  9991
2 40021  97.9234 124.4445 0011935 316.7164  43.3115 14.90643678276026
NANOSATC-BR1            
1 40024U 14033Q   19200.19668495  .00000254  00000-0  32400-4 0  9995
2 40024  97.9130 122.2370 0011293 319.2105  40.8266 14.89856516275985
QB50P1                  
1 40025U 14033R   19199.73984114  .00000150  00000-0  21965-4 0  9991
2 40025  97.9051 119.3758 0011668 326.9201  33.1285 14.88954034275791
QB50P2                  
1 40032U 14033Y   19200.35584143  .00000118  00000-0  18730-4 0  9998
2 40032  97.8975 118.1009 0010931 321.3356  38.7077 14.88488878275801
PERSEUS-M2              
1 40037U 14033AD  19200.18679551  .00000021  00000-0  85903-5 0  9992
2 40037  97.8901 114.0460 0013750 333.9206  26.1315 14.86463962275504
PERSEUS-M1              
1 40039U 14033AF  19200.17832907  .00000016  00000-0  80764-5 0  9993
2 40039  97.8884 113.1177 0013543 331.3149  28.7319 14.86084416275436
POLYITAN-1              
1 40042U 14033AJ  19199.74225435  .00000158  00000-0  23017-4 0  9993
2 40042  97.9130 119.7039 0013650 315.3599  44.6518 14.88668317275702
TIGRISAT                
1 40043U 14033AK  19200.16675951  .00000069  00000-0  17721-4 0  9991
2 40043  97.7538  66.6999 0060064 359.9962   0.1237 14.74275523273090
AEROCUBE 6A             
1 40045U 14033AM  19199.60992829  .00000130  00000-0  26071-4 0  9992
2 40045  97.7764  70.0710 0058077 354.6972   5.3616 14.75398384272973
AEROCUBE 6B             
1 40046U 14033AN  19199.68334228  .00000156  00000-0  29819-4 0  9995
2 40046  97.7698  69.7446 0057084 353.6675   6.3807 14.75379015273128
UKUBE-1                 
1 40074U 14037F   19200.44263559  .00000202  00000-0  31441-4 0  9991
2 40074  98.4400   4.1513 0005993 107.2509 252.9360 14.84066754272212
BRITE-PL2 (HEWELIUSZ)   
1 40119U 14049B   19199.71710935  .00000046  00000-0  11895-4 0  9993
2 40119  97.9053 290.0936 0018755 120.8091 239.4972 14.84410859266123
FIREBIRD 4              
1 40378U 15003C   19200.43897687  .00001588  00000-0  66184-4 0  9996
2 40378  99.1148 187.0492 0126952 348.5181  11.3158 15.18878908246592
GRIFEX                  
1 40379U 15003D   19200.43104974  .00001169  00000-0  53734-4 0  9999
2 40379  99.1141 180.9160 0135407   7.4198 352.8991 15.15537851246240
EXOCUBE (CP10)          
1 40380U 15003E   19200.45427457  .00001078  00000-0  52082-4 0  9991
2 40380  99.1166 177.5979 0140508  18.4362 342.1884 15.13554695246024
TIANWANG 1C (TW-1C)     
1 40926U 15051B   19200.38598471  .00007334  00000-0  10607-3 0  9994
2 40926  97.1335 246.5265 0006136 251.1610 165.0965 15.56197434214939
TIANWANG 1A (TW-1A)     
1 40928U 15051D   19200.47457826  .00002068  00000-0  52238-4 0  9990
2 40928  97.1431 231.0964 0010418 330.7844 138.9287 15.40904772213911
EXACTVIEW 9             
1 40936U 15052G   19200.48768042  .00000723  00000-0  12007-4 0  9992
2 40936   6.0018 201.5143 0010889 220.1684 139.7639 14.76493893205788
ATHENOXAT 1             
1 41168U 15077C   19199.82191224  .00001351  00000-0  35772-4 0  9996
2 41168  14.9896 355.2605 0011449 152.9417 207.1502 15.13665387198553
GALASSIA                
1 41170U 15077E   19199.54492056  .00001339  00000-0  34566-4 0  9991
2 41170  14.9900 350.3287 0012828 173.5370 186.5117 15.13995121198579
VELOX-II                
1 41171U 15077F   19199.59834744  .00001087  00000-0  24172-4 0  9993
2 41171  14.9925  23.5627 0008761  89.6970 270.4355 15.11234168198288
HORYU-4                 
1 41340U 16012D   19200.55524797  .00000283  00000-0  14777-4 0  9991
2 41340  31.0052 297.7969 0013910  74.6459 285.5713 15.01277378187652
E-ST@R-II               
1 41459U 16025D   19200.44493141  .00001073  00000-0  59295-4 0  9994
2 41459  98.1040 288.4966 0166867 254.9130 103.3574 15.05493678177172
AAUSAT 4                
1 41460U 16025E   19200.18316504  .00001702  00000-0  89395-4 0  9997
2 41460  98.0980 289.5394 0156647 248.1750 110.2740 15.07385685177263
DIWATA-1                
1 41463U 98067HT  19200.26078794  .00015605  00000-0  75830-4 0  9997
2 41463  51.6301  88.0360 0000788 123.2423 336.9360 15.82663112184616
BEESAT-4                
1 41619U 16040W   19199.86646146  .00000753  00000-0  34800-4 0  9996
2 41619  97.3656 261.5261 0009578 278.7768  81.2384 15.23173252158456
CANX-7                  
1 41788U 16059F   19200.19768943  .00005208  00000-0  79193-3 0  9995
2 41788  98.2399 276.0700 0023395 273.7537  86.0983 14.74266496150502
RAVAN                   
1 41849U 16067B   19199.71295800 -.00000127  00000-0 -55233-5 0  9992
2 41849  97.9235 299.2864 0006685 285.6182  74.4302 14.98255258146493
CELTEE 1                
1 41850U 16067C   19200.21873759  .00000609  00000-0  58173-4 0  9995
2 41850  97.9185 298.4219 0007116 282.4980  77.5445 14.97019939146490
